[{"OBJECT_NAME":"ONEWEB-0420","OBJECT_ID":"2021-132AC","EPOCH":"2025-11-12T03:57:59.353920","MEAN_MOTION":13.18687814,"ECCENTRICITY":0.00021794,"INCLINATION":87.922,"RA_OF_ASC_NODE":18.5667,"ARG_OF_PERICENTER":105.2541,"MEAN_ANOMALY":254.8832,"EPHEMERIS_TYPE":0,"CLASSIFICATION_TYPE":"U","NORAD_CAT_ID":50495,"ELEMENT_SET_NO":999,"REV_AT_EPOCH":19297,"BSTAR":7.9761322e-5,"MEAN_MOTION_DOT":4.4e-7,"MEAN_MOTION_DDOT":0},{"OBJECT_NAME":"ONEWEB-0421","OBJECT_ID":"2021-132AD","EPOCH":"2025-11-12T03:48:29.887200","MEAN_MOTION":13.18686888,"ECCENTRICITY":0.00016633,"INCLINATION":87.922,"RA_OF_ASC_NODE":18.5615,"ARG_OF_PERICENTER":110.7675,"MEAN_ANOMALY":249.3635,"EPHEMERIS_TYPE":0,"CLASSIFICATION_TYPE":"U","NORAD_CAT_ID":50496,"ELEMENT_SET_NO":999,"REV_AT_EPOCH":19301,"BSTAR":0.00021565301,"MEAN_MOTION_DOT":9.8e-7,"MEAN_MOTION_DDOT":0},{"OBJECT_NAME":"ONEWEB-0424","OBJECT_ID":"2021-132AE","EPOCH":"2025-11-12T04:40:45.426144","MEAN_MOTION":13.18688143,"ECCENTRICITY":0.00018645,"INCLINATION":87.9221,"RA_OF_ASC_NODE":18.5502,"ARG_OF_PERICENTER":87.7205,"MEAN_ANOMALY":272.4141,"EPHEMERIS_TYPE":0,"CLASSIFICATION_TYPE":"U","NORAD_CAT_ID":50497,"ELEMENT_SET_NO":999,"REV_AT_EPOCH":19304,"BSTAR":0.00014619867,"MEAN_MOTION_DOT":7.1e-7,"MEAN_MOTION_DDOT":0},{"OBJECT_NAME":"ONEWEB-0426","OBJECT_ID":"2021-132AF","EPOCH":"2025-11-12T01:54:27.593856","MEAN_MOTION":13.18688896,"ECCENTRICITY":0.0001259,"INCLINATION":87.9222,"RA_OF_ASC_NODE":18.564,"ARG_OF_PERICENTER":116.7344,"MEAN_ANOMALY":243.3917,"EPHEMERIS_TYPE":0,"CLASSIFICATION_TYPE":"U","NORAD_CAT_ID":50498,"ELEMENT_SET_NO":999,"REV_AT_EPOCH":19297,"BSTAR":0.00017071425,"MEAN_MOTION_DOT":8.0e-7,"MEAN_MOTION_DDOT":0},{"OBJECT_NAME":"ONEWEB-0427","OBJECT_ID":"2021-132AG","EPOCH":"2025-11-12T04:38:21.473376","MEAN_MOTION":13.18686104,"ECCENTRICITY":0.00016214,"INCLINATION":87.922,"RA_OF_ASC_NODE":18.5299,"ARG_OF_PERICENTER":96.0094,"MEAN_ANOMALY":264.1223,"EPHEMERIS_TYPE":0,"CLASSIFICATION_TYPE":"U","NORAD_CAT_ID":50499,"ELEMENT_SET_NO":999,"REV_AT_EPOCH":19301,"BSTAR":-0.00037938936,"MEAN_MOTION_DOT":-1.37e-6,"MEAN_MOTION_DDOT":0},{"OBJECT_NAME":"ONEWEB-0429","OBJECT_ID":"2021-132AH","EPOCH":"2025-11-12T04:19:22.086336","MEAN_MOTION":13.18688326,"ECCENTRICITY":0.00019495,"INCLINATION":87.922,"RA_OF_ASC_NODE":18.5639,"ARG_OF_PERICENTER":100.5295,"MEAN_ANOMALY":259.6057,"EPHEMERIS_TYPE":0,"CLASSIFICATION_TYPE":"U","NORAD_CAT_ID":50500,"ELEMENT_SET_NO":999,"REV_AT_EPOCH":19298,"BSTAR":0.00014314758,"MEAN_MOTION_DOT":6.9e-7,"MEAN_MOTION_DDOT":0},{"OBJECT_NAME":"ONEWEB-0430","OBJECT_ID":"2021-132AJ","EPOCH":"2025-11-12T04:02:44.213856","MEAN_MOTION":13.18688202,"ECCENTRICITY":0.00024395,"INCLINATION":87.9229,"RA_OF_ASC_NODE":18.5619,"ARG_OF_PERICENTER":102.4582,"MEAN_ANOMALY":257.6823,"EPHEMERIS_TYPE":0,"CLASSIFICATION_TYPE":"U","NORAD_CAT_ID":50501,"ELEMENT_SET_NO":999,"REV_AT_EPOCH":19302,"BSTAR":5.9941267e-5,"MEAN_MOTION_DOT":3.7e-7,"MEAN_MOTION_DDOT":0},{"OBJECT_NAME":"ONEWEB-0432","OBJECT_ID":"2021-132AK","EPOCH":"2025-11-12T04:48:21.631104","MEAN_MOTION":13.18673668,"ECCENTRICITY":0.00014981,"INCLINATION":87.9215,"RA_OF_ASC_NODE":18.5285,"ARG_OF_PERICENTER":68.176,"MEAN_ANOMALY":291.9532,"EPHEMERIS_TYPE":0,"CLASSIFICATION_TYPE":"U","NORAD_CAT_ID":50502,"ELEMENT_SET_NO":999,"REV_AT_EPOCH":19298,"BSTAR":8.338341e-6,"MEAN_MOTION_DOT":1.6e-7,"MEAN_MOTION_DDOT":0},{"OBJECT_NAME":"ONEWEB-0440","OBJECT_ID":"2021-132AL","EPOCH":"2025-11-12T04:31:15.120480","MEAN_MOTION":13.18687945,"ECCENTRICITY":0.00019592,"INCLINATION":87.9218,"RA_OF_ASC_NODE":18.5475,"ARG_OF_PERICENTER":111.3563,"MEAN_ANOMALY":248.7778,"EPHEMERIS_TYPE":0,"CLASSIFICATION_TYPE":"U","NORAD_CAT_ID":50503,"ELEMENT_SET_NO":999,"REV_AT_EPOCH":19297,"BSTAR":0.00021561327,"MEAN_MOTION_DOT":9.8e-7,"MEAN_MOTION_DDOT":0},{"OBJECT_NAME":"ONEWEB-0450","OBJECT_ID":"2021-132AM","EPOCH":"2025-11-12T04:21:57.296160","MEAN_MOTION":13.18685559,"ECCENTRICITY":0.00021005,"INCLINATION":87.9216,"RA_OF_ASC_NODE":18.572,"ARG_OF_PERICENTER":99.305,"MEAN_ANOMALY":260.832,"EPHEMERIS_TYPE":0,"CLASSIFICATION_TYPE":"U","NORAD_CAT_ID":50504,"ELEMENT_SET_NO":999,"REV_AT_EPOCH":19300,"BSTAR":-1.0623069e-5,"MEAN_MOTION_DOT":9.0e-8,"MEAN_MOTION_DDOT":0},{"OBJECT_NAME":"ONEWEB-0410","OBJECT_ID":"2022-012A","EPOCH":"2025-11-12T06:25:23.189664","MEAN_MOTION":13.17651848,"ECCENTRICITY":2.327e-5,"INCLINATION":87.9139,"RA_OF_ASC_NODE":48.9756,"ARG_OF_PERICENTER":104.4911,"MEAN_ANOMALY":255.6247,"EPHEMERIS_TYPE":0,"CLASSIFICATION_TYPE":"U","NORAD_CAT_ID":51622,"ELEMENT_SET_NO":999,"REV_AT_EPOCH":18513,"BSTAR":6.6498409e-5,"MEAN_MOTION_DOT":3.9e-7,"MEAN_MOTION_DDOT":0},{"OBJECT_NAME":"ONEWEB-0411","OBJECT_ID":"2022-012B","EPOCH":"2025-11-12T07:26:59.862048","MEAN_MOTION":13.10375833,"ECCENTRICITY":0.00019544,"INCLINATION":87.8794,"RA_OF_ASC_NODE":79.4994,"ARG_OF_PERICENTER":87.298,"MEAN_ANOMALY":272.8371,"EPHEMERIS_TYPE":0,"CLASSIFICATION_TYPE":"U","NORAD_CAT_ID":51623,"ELEMENT_SET_NO":999,"REV_AT_EPOCH":18088,"BSTAR":-0.00086922993,"MEAN_MOTION_DOT":-2.91e-6,"MEAN_MOTION_DDOT":0},{"OBJECT_NAME":"ONEWEB-0415","OBJECT_ID":"2022-012C","EPOCH":"2025-11-12T07:22:12.358272","MEAN_MOTION":13.10376632,"ECCENTRICITY":0.00016838,"INCLINATION":87.8797,"RA_OF_ASC_NODE":79.5023,"ARG_OF_PERICENTER":92.0382,"MEAN_ANOMALY":268.0938,"EPHEMERIS_TYPE":0,"CLASSIFICATION_TYPE":"U","NORAD_CAT_ID":51624,"ELEMENT_SET_NO":999,"REV_AT_EPOCH":18088,"BSTAR":-0.0010595213,"MEAN_MOTION_DOT":-3.57e-6,"MEAN_MOTION_DDOT":0},{"OBJECT_NAME":"ONEWEB-0416","OBJECT_ID":"2022-012D","EPOCH":"2025-11-12T07:38:57.115104","MEAN_MOTION":13.10377484,"ECCENTRICITY":0.00015415,"INCLINATION":87.8797,"RA_OF_ASC_NODE":79.5204,"ARG_OF_PERICENTER":97.126,"MEAN_ANOMALY":263.0043,"EPHEMERIS_TYPE":0,"CLASSIFICATION_TYPE":"U","NORAD_CAT_ID":51625,"ELEMENT_SET_NO":999,"REV_AT_EPOCH":18092,"BSTAR":0.00040331467,"MEAN_MOTION_DOT":1.53e-6,"MEAN_MOTION_DDOT":0},{"OBJECT_NAME":"ONEWEB-0422","OBJECT_ID":"2022-012E","EPOCH":"2025-11-12T06:39:58.798368","MEAN_MOTION":13.17651633,"ECCENTRICITY":0.00023191,"INCLINATION":87.9139,"RA_OF_ASC_NODE":48.978,"ARG_OF_PERICENTER":112.7481,"MEAN_ANOMALY":247.3896,"EPHEMERIS_TYPE":0,"CLASSIFICATION_TYPE":"U","NORAD_CAT_ID":51626,"ELEMENT_SET_NO":999,"REV_AT_EPOCH":18524,"BSTAR":-6.7456538e-5,"MEAN_MOTION_DOT":-1.3e-7,"MEAN_MOTION_DDOT":0},{"OBJECT_NAME":"ONEWEB-0423","OBJECT_ID":"2022-012F","EPOCH":"2025-11-12T06:30:15.719328","MEAN_MOTION":13.17651134,"ECCENTRICITY":0.00016991,"INCLINATION":87.9139,"RA_OF_ASC_NODE":48.9893,"ARG_OF_PERICENTER":106.6874,"MEAN_ANOMALY":253.4445,"EPHEMERIS_TYPE":0,"CLASSIFICATION_TYPE":"U","NORAD_CAT_ID":51627,"ELEMENT_SET_NO":999,"REV_AT_EPOCH":18513,"BSTAR":3.4784057e-5,"MEAN_MOTION_DOT":2.6e-7,"MEAN_MOTION_DDOT":0},{"OBJECT_NAME":"ONEWEB-0425","OBJECT_ID":"2022-012G","EPOCH":"2025-11-12T06:03:20.495520","MEAN_MOTION":13.10376683,"ECCENTRICITY":0.00012126,"INCLINATION":87.8802,"RA_OF_ASC_NODE":79.5034,"ARG_OF_PERICENTER":103.6006,"MEAN_ANOMALY":256.5256,"EPHEMERIS_TYPE":0,"CLASSIFICATION_TYPE":"U","NORAD_CAT_ID":51628,"ELEMENT_SET_NO":999,"REV_AT_EPOCH":18091,"BSTAR":0.0018526258,"MEAN_MOTION_DOT":6.59e-6,"MEAN_MOTION_DDOT":0}]
