ONEWEB-0420             
1 50495U 21132AC  25316.16527030  .00000044  00000+0  79761-4 0  9994
2 50495  87.9220  18.5667 0002179 105.2541 254.8832 13.18687814192970
ONEWEB-0421             
1 50496U 21132AD  25316.15867925  .00000098  00000+0  21565-3 0  9991
2 50496  87.9220  18.5615 0001663 110.7675 249.3635 13.18686888193016
ONEWEB-0424             
1 50497U 21132AE  25316.19497021  .00000071  00000+0  14620-3 0  9997
2 50497  87.9221  18.5502 0001864  87.7205 272.4141 13.18688143193046
ONEWEB-0426             
1 50498U 21132AF  25316.07948604  .00000080  00000+0  17071-3 0  9996
2 50498  87.9222  18.5640 0001259 116.7344 243.3917 13.18688896192970
ONEWEB-0427             
1 50499U 21132AG  25316.19330409 -.00000137  00000+0 -37939-3 0  9998
2 50499  87.9220  18.5299 0001621  96.0094 264.1223 13.18686104193011
ONEWEB-0429             
1 50500U 21132AH  25316.18011674  .00000069  00000+0  14315-3 0  9995
2 50500  87.9220  18.5639 0001949 100.5295 259.6057 13.18688326192986
ONEWEB-0430             
1 50501U 21132AJ  25316.16856729  .00000037  00000+0  59941-4 0  9992
2 50501  87.9229  18.5619 0002439 102.4582 257.6823 13.18688202193027
ONEWEB-0432             
1 50502U 21132AK  25316.20025036  .00000016  00000+0  83383-5 0  9992
2 50502  87.9215  18.5285 0001498  68.1760 291.9532 13.18673668192984
ONEWEB-0440             
1 50503U 21132AL  25316.18836945  .00000098  00000+0  21561-3 0  9997
2 50503  87.9218  18.5475 0001959 111.3563 248.7778 13.18687945192977
ONEWEB-0450             
1 50504U 21132AM  25316.18191315  .00000009  00000+0 -10623-4 0  9994
2 50504  87.9216  18.5720 0002100  99.3050 260.8320 13.18685559193006
ONEWEB-0410             
1 51622U 22012A   25316.26762951  .00000039  00000+0  66498-4 0  9996
2 51622  87.9139  48.9756 0000232 104.4911 255.6247 13.17651848185134
ONEWEB-0411             
1 51623U 22012B   25316.31041507 -.00000291  00000+0 -86923-3 0  9996
2 51623  87.8794  79.4994 0001954  87.2980 272.8371 13.10375833180886
ONEWEB-0415             
1 51624U 22012C   25316.30708748 -.00000357  00000+0 -10595-2 0  9997
2 51624  87.8797  79.5023 0001683  92.0382 268.0938 13.10376632180887
ONEWEB-0416             
1 51625U 22012D   25316.31871661  .00000153  00000+0  40331-3 0  9998
2 51625  87.8797  79.5204 0001541  97.1260 263.0043 13.10377484180926
ONEWEB-0422             
1 51626U 22012E   25316.27776387 -.00000013  00000+0 -67457-4 0  9999
2 51626  87.9139  48.9780 0002319 112.7481 247.3896 13.17651633185249
ONEWEB-0423             
1 51627U 22012F   25316.27101527  .00000026  00000+0  34784-4 0  9997
2 51627  87.9139  48.9893 0001699 106.6874 253.4445 13.17651134185135
ONEWEB-0425             
1 51628U 22012G   25316.25232055  .00000659  00000+0  18526-2 0  9993
2 51628  87.8802  79.5034 0001212 103.6006 256.5256 13.10376683180915
